[Satellite]
VERSION=1.1
NAME=IRIDIUM 169
NICKNAME=IRIDIUM 169
TLE1=1 43926U 19002E   19317.50930908  .00000064  00000-0  14499-4 0  9992
TLE2=2 43926  86.8947 311.0380 0004171   8.8325 351.2946 14.38637886 44072
STATUS=0
